IRIDIUM 173             
1 43925U 19002D   26062.41762300 -.00000569  00000+0 -21012-3 0  9994
2 43925  86.3957  37.7545 0002059  81.1476 278.9953 14.34214624373790
IRIDIUM 169             
1 43926U 19002E   26062.45792032  .00000330  00000+0  10135-3 0  9992
2 43926  86.4164  69.3955 0001585  74.6663 285.4710 14.38610701375028
IRIDIUM 172             
1 43927U 19002F   26062.48105222  .00000085  00000+0  23280-4 0  9998
2 43927  86.3963  37.7357 0002355  86.7862 273.3603 14.34217972373812
IRIDIUM 175             
1 43928U 19002G   26062.26070388  .00001323  00000+0  20584-3 0  9998
2 43928  86.1547 335.7089 0002214 112.6242 247.5209 14.72256199383651
IRIDIUM 171             
1 43929U 19002H   26062.46202390  .00000075  00000+0  19696-4 0  9997
2 43929  86.3972  38.0385 0002020  91.7762 268.3666 14.34218019373808
IRIDIUM 170             
1 43930U 19002J   26062.47538301  .00001357  00000+0  21130-3 0  9993
2 43930  86.6083  37.7241 0002613  91.3630 268.7886 14.72256676383702
IRIDIUM 167             
1 43931U 19002K   26062.45568100  .00000021  00000+0  46775-6 0  9994
2 43931  86.3960  37.7677 0001845  90.0945 270.0462 14.34217917373807
IRIDIUM 181             
1 56726U 23068S   26062.17114648  .00000380  00000+0  10695-3 0  9997
2 56726  86.4461 101.1269 0002600  98.6243 261.5252 14.43313719147143
IRIDIUM 177             
1 56727U 23068T   26062.39085903  .00001971  00000+0  25585-3 0  9994
2 56727  86.1994  19.0115 0002381  80.5206 279.6284 14.80238527150710
IRIDIUM 174             
1 56728U 23068U   26062.46302846  .00001430  00000+0  22286-3 0  9996
2 56728  86.6090  37.8661 0002603  83.4423 276.7090 14.72259319150465
IRIDIUM 178             
1 56729U 23068V   26062.44755492  .00000705  00000+0  89376-4 0  9992
2 56729  86.6481  69.5503 0002313 102.5983 257.5497 14.80242655150720
IRIDIUM 179             
1 56730U 23068W   26062.50979523  .00000668  00000+0  84515-4 0  9992
2 56730  86.6717  78.1977 0002255  93.4664 266.6816 14.80239105150737
